NORAD_CAT_ID,OBJECT_NAME,OBJECT_TYPE,EPOCH,MEAN_MOTION,ECCENTRICITY,INCLINATION,RA_OF_ASC_NODE,ARG_OF_PERICENTER,MEAN_ANOMALY,BSTAR,MEAN_MOTION_DOT,MEAN_MOTION_DDOT,TLE_LINE0,TLE_LINE1,TLE_LINE2,SEMIMAJOR_AXIS,PERIOD,APOGEE,PERIGEE,DECAYED
53589.0,STARLINK-4673,PAYLOAD,2024-02-29 21:52:00,15.08828579,0.0001077,53.2201,320.6781,88.0756,272.0359,0.00023105,3.39e-05,0.0,0 STARLINK-4673,1 53589U 22104B   24060.91112242  .00003390  00000-0  23105-3 0  9992,2 53589  53.2201 320.6781 0001077  88.0756 272.0359 15.08828579 84419,6917.915,95.438,540.525,539.035,0.0
53589.0,STARLINK-4673,PAYLOAD,2024-03-01 10:35:05,15.088463,0.0001411,53.2185,318.297,87.2641,272.8513,5.4861e-05,5.85e-06,0.0,0 STARLINK-4673,1 53589U 22104B   24061.44103461  .00000585  00000-0  54861-4 0  9991,2 53589  53.2185 318.2970 0001411  87.2641 272.8513 15.08846300 83476,6917.861,95.437,540.702,538.75,0.0
53589.0,STARLINK-4673,PAYLOAD,2024-03-01 21:42:47,15.08842064,0.0001295,53.2178,316.2157,89.6203,270.4937,0.0001223,1.659e-05,0.0,0 STARLINK-4673,1 53589U 22104B   24061.90471439  .00001659  00000-0  12230-3 0  9991,2 53589  53.2178 316.2157 0001295  89.6203 270.4937 15.08842064 84561,6917.874,95.437,540.635,538.843,0.0
53589.0,STARLINK-4673,PAYLOAD,2024-03-01 23:18:10,15.08849991,0.0001468,53.2187,315.9173,89.3945,270.7215,8.8885e-05,1.127e-05,0.0,0 STARLINK-4673,1 53589U 22104B   24061.97095096  .00001127  00000-0  88885-4 0  9999,2 53589  53.2187 315.9173 0001468  89.3945 270.7215 15.08849991 84576,6917.85,95.437,540.73,538.699,0.0
53589.0,STARLINK-4673,PAYLOAD,2024-03-02 19:58:11,15.08838927,0.0001363,53.2188,312.0548,67.5687,292.5449,4.6092e-05,4.46e-06,0.0,0 STARLINK-4673,1 53589U 22104B   24062.83207975  .00000446  00000-0  46092-4 0  9993,2 53589  53.2188 312.0548 0001363  67.5687 292.5449 15.08838927 83685,6917.884,95.438,540.692,538.806,0.0
53589.0,STARLINK-4673,PAYLOAD,2024-03-02 21:33:34,15.08837948,0.0001261,53.2188,311.7591,81.442,278.6715,4.289e-05,3.95e-06,0.0,0 STARLINK-4673,1 53589U 22104B   24062.89831951  .00000395  00000-0  42890-4 0  9991,2 53589  53.2188 311.7591 0001261  81.4420 278.6715 15.08837948 84714,6917.887,95.438,540.624,538.879,0.0
53589.0,STARLINK-4673,PAYLOAD,2024-03-03 02:19:43,15.08842116,0.0001377,53.2183,310.8619,91.2319,268.8831,2.5744e-05,1.22e-06,0.0,0 STARLINK-4673,1 53589U 22104B   24063.09703690  .00000122  00000-0  25744-4 0  9999,2 53589  53.2183 310.8619 0001377  91.2319 268.8831 15.08842116 84740,6917.874,95.437,540.692,538.786,0.0
53589.0,STARLINK-4673,PAYLOAD,2024-03-03 19:48:58,15.08838566,0.0001042,53.2176,307.5899,103.5381,256.5728,9.1712e-06,-1.42e-06,0.0,0 STARLINK-4673,1 53589U 22104B   24063.82567827 -.00000142  00000-0  91712-5 0  9992,2 53589  53.2176 307.5899 0001042 103.5381 256.5728 15.08838566 84855,6917.885,95.438,540.471,539.029,0.0
53589.0,STARLINK-4673,PAYLOAD,2024-03-04 02:10:30,15.08850624,0.000135,53.2178,306.3994,88.3975,271.7171,-7.745e-05,-1.521e-05,0.0,0 STARLINK-4673,1 53589U 22104B   24064.09063418 -.00001521  00000-0 -77450-4 0  9994,2 53589  53.2178 306.3994 0001350  88.3975 271.7171 15.08850624 83872,6917.848,95.437,540.647,538.779,0.0
53589.0,STARLINK-4673,PAYLOAD,2024-03-04 08:32:02,15.08852025,0.0001648,53.2192,305.2148,69.199,290.9179,9.6548e-05,1.249e-05,0.0,0 STARLINK-4673,1 53589U 22104B   24064.35558851  .00001249  00000-0  96548-4 0  9997,2 53589  53.2192 305.2148 0001648  69.1990 290.9179 15.08852025 84937,6917.844,95.437,540.849,538.569,0.0
53589.0,STARLINK-4673,PAYLOAD,2024-03-04 19:39:45,15.08841285,0.0001687,53.2187,303.1397,118.2732,241.843,-5.1988e-05,-1.115e-05,0.0,0 STARLINK-4673,1 53589U 22104B   24064.81928064 -.00001115  00000-0 -51988-4 0  9998,2 53589  53.2187 303.1397 0001687 118.2732 241.8430 15.08841285 83982,6917.876,95.437,540.909,538.574,0.0
53589.0,STARLINK-4673,PAYLOAD,2024-03-04 22:50:32,15.0883627,0.0001232,53.2171,302.54,84.4236,275.6897,-1.96e-05,-6e-06,0.0,0 STARLINK-4673,1 53589U 22104B   24064.95176166 -.00000600  00000-0 -19600-4 0  9994,2 53589  53.2171 302.5400 0001232  84.4236 275.6897 15.08836270 85029,6917.892,95.438,540.609,538.905,0.0
53589.0,STARLINK-4673,PAYLOAD,2024-03-05 21:05:56,15.08835667,0.000121,53.2174,298.3762,85.8165,274.2965,-6.3967e-05,-1.306e-05,0.0,0 STARLINK-4673,1 53589U 22104B   24065.87912638 -.00001306  00000-0 -63967-4 0  9997,2 53589  53.2174 298.3762 0001210  85.8165 274.2965 15.08835667 84149,6917.894,95.438,540.596,538.922,0.0
53589.0,STARLINK-4673,PAYLOAD,2024-03-06 22:32:06,15.08838168,0.0001361,53.2174,293.6177,80.9352,279.1794,8.0966e-05,1.001e-05,0.0,0 STARLINK-4673,1 53589U 22104B   24066.93896496  .00001001  00000-0  80966-4 0  9996,2 53589  53.2174 293.6177 0001361  80.9352 279.1794 15.08838168 84309,6917.886,95.438,540.693,538.809,0.0
53589.0,STARLINK-4673,PAYLOAD,2024-03-07 08:04:24,15.08848539,0.0001398,53.2173,291.8328,80.8955,279.2196,0.00012384,1.684e-05,0.0,0 STARLINK-4673,1 53589U 22104B   24067.33639770  .00001684  00000-0  12384-3 0  9996,2 53589  53.2173 291.8328 0001398  80.8955 279.2196 15.08848539 85383,6917.854,95.437,540.686,538.752,0.0
53589.0,STARLINK-4673,PAYLOAD,2024-03-07 23:58:17,15.08837067,0.0001505,53.2178,288.8554,86.6764,273.4401,0.00011243,1.502e-05,0.0,0 STARLINK-4673,1 53589U 22104B   24067.99880851  .00001502  00000-0  11243-3 0  9998,2 53589  53.2178 288.8554 0001505  86.6764 273.4401 15.08837067 84464,6917.889,95.438,540.795,538.713,0.0
53589.0,STARLINK-4673,PAYLOAD,2024-03-08 07:55:12,15.08842312,0.0001503,53.218,287.3726,103.5395,256.5765,0.00015819,2.231e-05,0.0,0 STARLINK-4673,1 53589U 22104B   24068.33000486  .00002231  00000-0  15819-3 0  9998,2 53589  53.2180 287.3726 0001503 103.5395 256.5765 15.08842312 85532,6917.873,95.437,540.778,538.699,0.0
53589.0,STARLINK-4673,PAYLOAD,2024-03-09 14:07:32,15.08845528,0.0002246,53.2162,281.7226,86.5727,273.5522,0.00024772,3.657e-05,0.0,0 STARLINK-4673,1 53589U 22104B   24069.58856584  .00003657  00000-0  24772-3 0  9995,2 53589  53.2162 281.7226 0002246  86.5727 273.5522 15.08845528 85722,6917.863,95.437,541.282,538.175,0.0
53589.0,STARLINK-4673,PAYLOAD,2024-03-09 20:29:04,15.08845086,0.0001894,53.2164,280.5311,96.8672,263.2536,0.0002016,2.922e-05,0.0,0 STARLINK-4673,1 53589U 22104B   24069.85352380  .00002922  00000-0  20160-3 0  9991,2 53589  53.2164 280.5311 0001894  96.8672 263.2536 15.08845086 85761,6917.865,95.437,541.04,538.42,0.0
53589.0,STARLINK-4673,PAYLOAD,2024-03-09 23:39:50,15.08844284,0.000154,53.2155,279.9374,97.1903,262.9264,0.0001076,1.425e-05,0.0,0 STARLINK-4673,1 53589U 22104B   24069.98600290  .00001425  00000-0  10760-3 0  9993,2 53589  53.2155 279.9374 0001540  97.1903 262.9264 15.08844284 85786,6917.867,95.437,540.798,538.667,0.0
53589.0,STARLINK-4673,PAYLOAD,2024-03-10 20:19:51,15.08837989,0.0001488,53.2162,276.0697,91.2258,268.8905,0.00011702,1.575e-05,0.0,0 STARLINK-4673,1 53589U 22104B   24070.84712564  .00001575  00000-0  11702-3 0  9991,2 53589  53.2162 276.0697 0001488  91.2258 268.8905 15.08837989 84891,6917.887,95.438,540.781,538.722,0.0
53589.0,STARLINK-4673,PAYLOAD,2024-03-10 23:30:37,15.08839962,0.0001394,53.2146,275.4771,98.5923,261.5227,7.8122e-05,9.56e-06,0.0,0 STARLINK-4673,1 53589U 22104B   24070.97960437  .00000956  00000-0  78122-4 0  9991,2 53589  53.2146 275.4771 0001394  98.5923 261.5227 15.08839962 85930,6917.881,95.438,540.71,538.781,0.0
53589.0,STARLINK-4673,PAYLOAD,2024-03-12 13:39:53,15.08836105,0.0001267,53.2166,268.3392,85.8839,274.2298,0.000112,1.495e-05,0.0,0 STARLINK-4673,1 53589U 22104B   24072.56936945  .00001495  00000-0  11200-3 0  9997,2 53589  53.2166 268.3392 0001267  85.8839 274.2298 15.08836105 85155,6917.892,95.438,540.634,538.881,0.0
53589.0,STARLINK-4673,PAYLOAD,2024-03-12 20:01:26,15.08837456,0.000125,53.2164,267.1504,85.9989,274.1146,0.00011045,1.47e-05,0.0,0 STARLINK-4673,1 53589U 22104B   24072.83432937  .00001470  00000-0  11045-3 0  9999,2 53589  53.2164 267.1504 0001250  85.9989 274.1146 15.08837456 86213,6917.888,95.438,540.618,538.888,0.0
53589.0,STARLINK-4673,PAYLOAD,2024-03-13 11:55:17,15.08837426,0.0001271,53.2163,264.1782,91.0533,269.0605,0.00011739,1.581e-05,0.0,0 STARLINK-4673,1 53589U 22104B   24073.49673154  .00001581  00000-0  11739-3 0  9993,2 53589  53.2163 264.1782 0001271  91.0533 269.0605 15.08837426 86314,6917.888,95.438,540.633,538.874,0.0
53589.0,STARLINK-4673,PAYLOAD,2024-03-14 05:24:32,15.08839773,9.17e-05,53.2137,260.9056,81.0634,279.0462,0.00010131,1.325e-05,0.0,0 STARLINK-4673,1 53589U 22104B   24074.22537174  .00001325  00000-0  10131-3 0  9997,2 53589  53.2137 260.9056 0000917  81.0634 279.0462 15.08839773 86421,6917.881,95.438,540.38,539.112,0.0
53589.0,STARLINK-4673,PAYLOAD,2024-03-14 11:46:04,15.08836905,0.0001494,53.214,259.716,81.8813,278.2349,8.3625e-05,1.043e-05,0.0,0 STARLINK-4673,1 53589U 22104B   24074.49033534  .00001043  00000-0  83625-4 0  9993,2 53589  53.2140 259.7160 0001494  81.8813 278.2349 15.08836905 85445,6917.89,95.438,540.788,538.721,0.0
53589.0,STARLINK-4673,PAYLOAD,2024-03-14 21:18:23,15.08840842,0.0001388,53.217,257.9335,83.5511,276.5639,0.00010044,1.311e-05,0.0,0 STARLINK-4673,1 53589U 22104B   24074.88777292  .00001311  00000-0  10044-3 0  9994,2 53589  53.2170 257.9335 0001388  83.5511 276.5639 15.08840842 86526,6917.878,95.438,540.703,538.783,0.0
53589.0,STARLINK-4673,PAYLOAD,2024-03-15 21:09:10,15.08841784,0.0001387,53.217,253.473,83.7821,276.3329,0.00010591,1.398e-05,0.0,0 STARLINK-4673,1 53589U 22104B   24075.88137291  .00001398  00000-0  10591-3 0  9996,2 53589  53.2170 253.4730 0001387  83.7821 276.3329 15.08841784 86677,6917.875,95.437,540.699,538.78,0.0
53589.0,STARLINK-4673,PAYLOAD,2024-03-16 11:27:39,15.0883938,0.0001377,53.2169,250.7965,83.8984,276.2165,8.6737e-05,1.093e-05,0.0,0 STARLINK-4673,1 53589U 22104B   24076.47753529  .00001093  00000-0  86737-4 0  9998,2 53589  53.2169 250.7965 0001377  83.8984 276.2165 15.08839380 86761,6917.882,95.438,540.7,538.795,0.0
